H-2A R/B                
1 38341U 12025E   25310.74747108  .00006343  00000+0  58836-3 0  9996
2 38341  98.4539 263.2240 0045496 356.9115   3.1815 14.94051357729854
SHIJIAN-16 (SJ-16)      
1 39358U 13057A   25310.99417098  .00003013  00000+0  30075-3 0  9996
2 39358  74.9745  57.2777 0016205  47.4055 312.8496 14.91790950653204
SL-4 R/B                
1 39679U 14021B   25310.76713875  .00020926  00000+0  51059-3 0  9998
2 39679  51.6067 215.2487 0104575  16.7196 343.7191 15.35301682637369
ALOS-2                  
1 39766U 14029A   25310.96522999  .00002891  00000+0  39379-3 0  9992
2 39766  97.9238  46.3202 0001218 102.0304 258.1044 14.79480979618726
YAOGAN-29               
1 41038U 15069A   25310.98847207  .00000624  00000+0  83798-4 0  9993
2 41038  98.0258 334.0387 0002446  57.8198 302.3252 14.82820490537697
ASTRO-H (HITOMI)        
1 41337U 16012A   25310.77698615  .00005187  00000+0  31390-3 0  9997
2 41337  30.9999  69.1512 0009875 176.2582 183.8131 15.09020193533649
HXMT (HUIYAN)           
1 42758U 17034A   25310.94822796  .00008837  00000+0  46189-3 0  9995
2 42758  43.0154 338.1641 0032949 181.6365 178.4379 15.15651360463902
CZ-2C R/B               
1 43521U 18054D   25310.68282849  .00099545  00000+0  90350-3 0  9992
2 43521  35.1364  63.9558 0024511 153.9960 206.2007 15.66315840409381
SAOCOM 1A               
1 43641U 18076A   25310.95885360  .00000629  00000+0  85533-4 0  9999
2 43641  97.8870 135.8992 0001346  91.5988 268.5379 14.82150734383188
H-2A R/B                
1 43682U 18084L   25310.48340225  .00025421  00000+0  72630-3 0  9997
2 43682  98.8798 137.1002 0029305  89.2355 271.2242 15.35572193386838
SAOCOM 1B               
1 46265U 20059A   25311.05765184  .00000476  00000+0  66399-4 0  9990
2 46265  97.8857 135.0993 0001301  91.2344 268.9018 14.82159221280589
CSS (TIANHE)            
1 48274U 21035A   25310.84814980  .00035789  00000+0  42324-3 0  9998
2 48274  41.4667 234.6537 0005753 334.9665  25.0894 15.60542316258423
