CCSDS_OMM_VERS = 2.0
CREATION_DATE  = 
ORIGINATOR     = 

OBJECT_NAME    = H-2A R/B
OBJECT_ID      = 2012-025E
CENTER_NAME    = EARTH
REF_FRAME      = TEME
TIME_SYSTEM    = UTC
MEAN_ELEMENT_THEORY = SGP/SGP4

EPOCH          = 2025-11-06T17:56:21.501312
MEAN_MOTION    = 14.94051357
ECCENTRICITY   = .00454962
INCLINATION    = 98.4539
RA_OF_ASC_NODE = 263.2240
ARG_OF_PERICENTER = 356.9115
MEAN_ANOMALY   = 3.1815

EPHEMERIS_TYPE = 0
CLASSIFICATION_TYPE = U
NORAD_CAT_ID   = 38341
ELEMENT_SET_NO = 999
REV_AT_EPOCH   = 72985
BSTAR          = .58836375E-3
MEAN_MOTION_DOT = .6343E-4
MEAN_MOTION_DDOT = 0

CCSDS_OMM_VERS = 2.0
CREATION_DATE  = 
ORIGINATOR     = 

OBJECT_NAME    = SHIJIAN-16 (SJ-16)
OBJECT_ID      = 2013-057A
CENTER_NAME    = EARTH
REF_FRAME      = TEME
TIME_SYSTEM    = UTC
MEAN_ELEMENT_THEORY = SGP/SGP4

EPOCH          = 2025-11-06T23:51:36.372672
MEAN_MOTION    = 14.91790950
ECCENTRICITY   = .00162053
INCLINATION    = 74.9745
RA_OF_ASC_NODE = 57.2777
ARG_OF_PERICENTER = 47.4055
MEAN_ANOMALY   = 312.8496

EPHEMERIS_TYPE = 0
CLASSIFICATION_TYPE = U
NORAD_CAT_ID   = 39358
ELEMENT_SET_NO = 999
REV_AT_EPOCH   = 65320
BSTAR          = .3007516E-3
MEAN_MOTION_DOT = .3013E-4
MEAN_MOTION_DDOT = 0

CCSDS_OMM_VERS = 2.0
CREATION_DATE  = 
ORIGINATOR     = 

OBJECT_NAME    = SL-4 R/B
OBJECT_ID      = 2014-021B
CENTER_NAME    = EARTH
REF_FRAME      = TEME
TIME_SYSTEM    = UTC
MEAN_ELEMENT_THEORY = SGP/SGP4

EPOCH          = 2025-11-06T18:24:40.788000
MEAN_MOTION    = 15.35301682
ECCENTRICITY   = .0104575
INCLINATION    = 51.6067
RA_OF_ASC_NODE = 215.2487
ARG_OF_PERICENTER = 16.7196
MEAN_ANOMALY   = 343.7191

EPHEMERIS_TYPE = 0
CLASSIFICATION_TYPE = U
NORAD_CAT_ID   = 39679
ELEMENT_SET_NO = 999
REV_AT_EPOCH   = 63736
BSTAR          = .51058555E-3
MEAN_MOTION_DOT = .20926E-3
MEAN_MOTION_DDOT = 0

CCSDS_OMM_VERS = 2.0
CREATION_DATE  = 
ORIGINATOR     = 

OBJECT_NAME    = ALOS-2
OBJECT_ID      = 2014-029A
CENTER_NAME    = EARTH
REF_FRAME      = TEME
TIME_SYSTEM    = UTC
MEAN_ELEMENT_THEORY = SGP/SGP4

EPOCH          = 2025-11-06T23:09:55.871136
MEAN_MOTION    = 14.79480979
ECCENTRICITY   = .00012188
INCLINATION    = 97.9238
RA_OF_ASC_NODE = 46.3202
ARG_OF_PERICENTER = 102.0304
MEAN_ANOMALY   = 258.1044

EPHEMERIS_TYPE = 0
CLASSIFICATION_TYPE = U
NORAD_CAT_ID   = 39766
ELEMENT_SET_NO = 999
REV_AT_EPOCH   = 61872
BSTAR          = .39378614E-3
MEAN_MOTION_DOT = .2891E-4
MEAN_MOTION_DDOT = 0

CCSDS_OMM_VERS = 2.0
CREATION_DATE  = 
ORIGINATOR     = 

OBJECT_NAME    = YAOGAN-29
OBJECT_ID      = 2015-069A
CENTER_NAME    = EARTH
REF_FRAME      = TEME
TIME_SYSTEM    = UTC
MEAN_ELEMENT_THEORY = SGP/SGP4

EPOCH          = 2025-11-06T23:43:23.986848
MEAN_MOTION    = 14.82820490
ECCENTRICITY   = .00024466
INCLINATION    = 98.0258
RA_OF_ASC_NODE = 334.0387
ARG_OF_PERICENTER = 57.8198
MEAN_ANOMALY   = 302.3252

EPHEMERIS_TYPE = 0
CLASSIFICATION_TYPE = U
NORAD_CAT_ID   = 41038
ELEMENT_SET_NO = 999
REV_AT_EPOCH   = 53769
BSTAR          = .83798013E-4
MEAN_MOTION_DOT = .624E-5
MEAN_MOTION_DDOT = 0

CCSDS_OMM_VERS = 2.0
CREATION_DATE  = 
ORIGINATOR     = 

OBJECT_NAME    = ASTRO-H (HITOMI)
OBJECT_ID      = 2016-012A
CENTER_NAME    = EARTH
REF_FRAME      = TEME
TIME_SYSTEM    = UTC
MEAN_ELEMENT_THEORY = SGP/SGP4

EPOCH          = 2025-11-06T18:38:51.603360
MEAN_MOTION    = 15.09020193
ECCENTRICITY   = .00098758
INCLINATION    = 30.9999
RA_OF_ASC_NODE = 69.1512
ARG_OF_PERICENTER = 176.2582
MEAN_ANOMALY   = 183.8131

EPHEMERIS_TYPE = 0
CLASSIFICATION_TYPE = U
NORAD_CAT_ID   = 41337
ELEMENT_SET_NO = 999
REV_AT_EPOCH   = 53364
BSTAR          = .31390304E-3
MEAN_MOTION_DOT = .5187E-4
MEAN_MOTION_DDOT = 0

CCSDS_OMM_VERS = 2.0
CREATION_DATE  = 
ORIGINATOR     = 

OBJECT_NAME    = HXMT (HUIYAN)
OBJECT_ID      = 2017-034A
CENTER_NAME    = EARTH
REF_FRAME      = TEME
TIME_SYSTEM    = UTC
MEAN_ELEMENT_THEORY = SGP/SGP4

EPOCH          = 2025-11-06T22:45:26.895744
MEAN_MOTION    = 15.15651360
ECCENTRICITY   = .00329496
INCLINATION    = 43.0154
RA_OF_ASC_NODE = 338.1641
ARG_OF_PERICENTER = 181.6365
MEAN_ANOMALY   = 178.4379

EPHEMERIS_TYPE = 0
CLASSIFICATION_TYPE = U
NORAD_CAT_ID   = 42758
ELEMENT_SET_NO = 999
REV_AT_EPOCH   = 46390
BSTAR          = .46189024E-3
MEAN_MOTION_DOT = .8837E-4
MEAN_MOTION_DDOT = 0

CCSDS_OMM_VERS = 2.0
CREATION_DATE  = 
ORIGINATOR     = 

OBJECT_NAME    = CZ-2C R/B
OBJECT_ID      = 2018-054D
CENTER_NAME    = EARTH
REF_FRAME      = TEME
TIME_SYSTEM    = UTC
MEAN_ELEMENT_THEORY = SGP/SGP4

EPOCH          = 2025-11-06T16:23:16.381536
MEAN_MOTION    = 15.66315840
ECCENTRICITY   = .00245118
INCLINATION    = 35.1364
RA_OF_ASC_NODE = 63.9558
ARG_OF_PERICENTER = 153.9960
MEAN_ANOMALY   = 206.2007

EPHEMERIS_TYPE = 0
CLASSIFICATION_TYPE = U
NORAD_CAT_ID   = 43521
ELEMENT_SET_NO = 999
REV_AT_EPOCH   = 40938
BSTAR          = .90350416E-3
MEAN_MOTION_DOT = .99545E-3
MEAN_MOTION_DDOT = 0

CCSDS_OMM_VERS = 2.0
CREATION_DATE  = 
ORIGINATOR     = 

OBJECT_NAME    = SAOCOM 1A
OBJECT_ID      = 2018-076A
CENTER_NAME    = EARTH
REF_FRAME      = TEME
TIME_SYSTEM    = UTC
MEAN_ELEMENT_THEORY = SGP/SGP4

EPOCH          = 2025-11-06T23:00:44.951040
MEAN_MOTION    = 14.82150734
ECCENTRICITY   = .00013464
INCLINATION    = 97.8870
RA_OF_ASC_NODE = 135.8992
ARG_OF_PERICENTER = 91.5988
MEAN_ANOMALY   = 268.5379

EPHEMERIS_TYPE = 0
CLASSIFICATION_TYPE = U
NORAD_CAT_ID   = 43641
ELEMENT_SET_NO = 999
REV_AT_EPOCH   = 38318
BSTAR          = .85532871E-4
MEAN_MOTION_DOT = .629E-5
MEAN_MOTION_DDOT = 0

CCSDS_OMM_VERS = 2.0
CREATION_DATE  = 
ORIGINATOR     = 

OBJECT_NAME    = H-2A R/B
OBJECT_ID      = 2018-084L
CENTER_NAME    = EARTH
REF_FRAME      = TEME
TIME_SYSTEM    = UTC
MEAN_ELEMENT_THEORY = SGP/SGP4

EPOCH          = 2025-11-06T11:36:05.954400
MEAN_MOTION    = 15.35572193
ECCENTRICITY   = .00293058
INCLINATION    = 98.8798
RA_OF_ASC_NODE = 137.1002
ARG_OF_PERICENTER = 89.2355
MEAN_ANOMALY   = 271.2242

EPHEMERIS_TYPE = 0
CLASSIFICATION_TYPE = U
NORAD_CAT_ID   = 43682
ELEMENT_SET_NO = 999
REV_AT_EPOCH   = 38683
BSTAR          = .72630062E-3
MEAN_MOTION_DOT = .25421E-3
MEAN_MOTION_DDOT = 0

CCSDS_OMM_VERS = 2.0
CREATION_DATE  = 
ORIGINATOR     = 

OBJECT_NAME    = SAOCOM 1B
OBJECT_ID      = 2020-059A
CENTER_NAME    = EARTH
REF_FRAME      = TEME
TIME_SYSTEM    = UTC
MEAN_ELEMENT_THEORY = SGP/SGP4

EPOCH          = 2025-11-07T01:23:01.118976
MEAN_MOTION    = 14.82159221
ECCENTRICITY   = .0001301
INCLINATION    = 97.8857
RA_OF_ASC_NODE = 135.0993
ARG_OF_PERICENTER = 91.2344
MEAN_ANOMALY   = 268.9018

EPHEMERIS_TYPE = 0
CLASSIFICATION_TYPE = U
NORAD_CAT_ID   = 46265
ELEMENT_SET_NO = 999
REV_AT_EPOCH   = 28058
BSTAR          = .66399E-4
MEAN_MOTION_DOT = .476E-5
MEAN_MOTION_DDOT = 0

CCSDS_OMM_VERS = 2.0
CREATION_DATE  = 
ORIGINATOR     = 

OBJECT_NAME    = CSS (TIANHE)
OBJECT_ID      = 2021-035A
CENTER_NAME    = EARTH
REF_FRAME      = TEME
TIME_SYSTEM    = UTC
MEAN_ELEMENT_THEORY = SGP/SGP4

EPOCH          = 2025-11-06T20:21:20.142720
MEAN_MOTION    = 15.60542316
ECCENTRICITY   = .00057535
INCLINATION    = 41.4667
RA_OF_ASC_NODE = 234.6537
ARG_OF_PERICENTER = 334.9665
MEAN_ANOMALY   = 25.0894

EPHEMERIS_TYPE = 0
CLASSIFICATION_TYPE = U
NORAD_CAT_ID   = 48274
ELEMENT_SET_NO = 999
REV_AT_EPOCH   = 25842
BSTAR          = .42324143E-3
MEAN_MOTION_DOT = .35789E-3
MEAN_MOTION_DDOT = 0

